{"type": "FeatureCollection", "features": [ {"type": "Feature", "properties": {"norad_id": 66576, "name": "STARLINK-35814", "group": "last-30-days", "lat": 0.022912466846637992, "lon": 157.89613482809722, "alt_km": 379.7411302841774, "timestamp": "2025-12-06T11:28:09.787049+00:00", "meta": {"OBJECT_NAME": "STARLINK-35814", "OBJECT_ID": "2025-268V", "EPOCH": "2025-12-05T22:00:03.000096", "MEAN_MOTION": 15.64959289, "ECCENTRICITY": 0.00016135, "INCLINATION": 42.9999, "RA_OF_ASC_NODE": 161.2202, "ARG_OF_PERICENTER": 279.3649, "MEAN_ANOMALY": 157.6631, "EPHEMERIS_TYPE": 0, "CLASSIFICATION_TYPE": "U", "NORAD_CAT_ID": 66576, "ELEMENT_SET_NO": 999, "REV_AT_EPOCH": 357, "BSTAR": -0.021877234, "MEAN_MOTION_DOT": -0.01947936, "MEAN_MOTION_DDOT": 0}, "tle": {"line1": "1 66576U 25268V   25339.91670139 -.01947936  00000+0 -21877-1 0  9997", "line2": "2 66576  42.9999 161.2202 0001613 279.3649 157.6631 15.64959289  3571"}}, "geometry": {"type": "Point", "coordinates": [157.89613482809722, 0.022912466846637992]}}, {"type": "Feature", "properties": {"norad_id": 66577, "name": "STARLINK-35815", "group": "last-30-days", "lat": 1.3301433673451737, "lon": 159.29449520361496, "alt_km": 379.5467754688916, "timestamp": "2025-12-06T11:28:09.787065+00:00", "meta": {"OBJECT_NAME": "STARLINK-35815", "OBJECT_ID": "2025-268W", "EPOCH": "2025-12-05T22:00:03.000096", "MEAN_MOTION": 15.64957356, "ECCENTRICITY": 0.0001671, "INCLINATION": 42.9999, "RA_OF_ASC_NODE": 161.2153, "ARG_OF_PERICENTER": 281.3132, "MEAN_ANOMALY": 157.6332, "EPHEMERIS_TYPE": 0, "CLASSIFICATION_TYPE": "U", "NORAD_CAT_ID": 66577, "ELEMENT_SET_NO": 999, "REV_AT_EPOCH": 357, "BSTAR": -0.021857336, "MEAN_MOTION_DOT": -0.01946283, "MEAN_MOTION_DDOT": 0}, "tle": {"line1": "1 66577U 25268W   25339.91670139 -.01946283  00000+0 -21857-1 0  9990", "line2": "2 66577  42.9999 161.2153 0001671 281.3132 157.6332 15.64957356  3572"}}, "geometry": {"type": "Point", "coordinates": [159.29449520361496, 1.3301433673451737]}}, {"type": "Feature", "properties": {"norad_id": 66578, "name": "STARLINK-35743", "group": "last-30-days", "lat": 2.63651159976486, "lon": 160.69437325828412, "alt_km": 379.4733641665889, "timestamp": "2025-12-06T11:28:09.787082+00:00", "meta": {"OBJECT_NAME": "STARLINK-35743", "OBJECT_ID": "2025-268X", "EPOCH": "2025-12-05T22:00:03.000096", "MEAN_MOTION": 15.6495773, "ECCENTRICITY": 0.00016289, "INCLINATION": 42.9998, "RA_OF_ASC_NODE": 161.2105, "ARG_OF_PERICENTER": 279.6435, "MEAN_ANOMALY": 161.2198, "EPHEMERIS_TYPE": 0, "CLASSIFICATION_TYPE": "U", "NORAD_CAT_ID": 66578, "ELEMENT_SET_NO": 999, "REV_AT_EPOCH": 357, "BSTAR": -0.021859464, "MEAN_MOTION_DOT": -0.01946444, "MEAN_MOTION_DDOT": 0}, "tle": {"line1": "1 66578U 25268X   25339.91670139 -.01946444  00000+0 -21859-1 0  9992", "line2": "2 66578  42.9998 161.2105 0001628 279.6435 161.2198 15.64957730  3574"}}, "geometry": {"type": "Point", "coordinates": [160.69437325828412, 2.63651159976486]}}, {"type": "Feature", "properties": {"norad_id": 66579, "name": "STARLINK-35868", "group": "last-30-days", "lat": 3.941018550022342, "lon": 162.0966134686935, "alt_km": 379.32139933841336, "timestamp": "2025-12-06T11:28:09.787099+00:00", "meta": {"OBJECT_NAME": "STARLINK-35868", "OBJECT_ID": "2025-268Y", "EPOCH": "2025-12-05T22:00:03.000096", "MEAN_MOTION": 15.64960371, "ECCENTRICITY": 0.00016576, "INCLINATION": 42.9997, "RA_OF_ASC_NODE": 161.2054, "ARG_OF_PERICENTER": 280.3463, "MEAN_ANOMALY": 162.4322, "EPHEMERIS_TYPE": 0, "CLASSIFICATION_TYPE": "U", "NORAD_CAT_ID": 66579, "ELEMENT_SET_NO": 999, "REV_AT_EPOCH": 357, "BSTAR": -0.021896201, "MEAN_MOTION_DOT": -0.01949534, "MEAN_MOTION_DDOT": 0}, "tle": {"line1": "1 66579U 25268Y   25339.91670139 -.01949534  00000+0 -21896-1 0  9997", "line2": "2 66579  42.9997 161.2054 0001657 280.3463 162.4322 15.64960371  3576"}}, "geometry": {"type": "Point", "coordinates": [162.0966134686935, 3.941018550022342]}}, {"type": "Feature", "properties": {"norad_id": 66580, "name": "STARLINK-35872", "group": "last-30-days", "lat": 5.243090407396638, "lon": 163.50401363496016, "alt_km": 379.21239118206995, "timestamp": "2025-12-06T11:28:09.787116+00:00", "meta": {"OBJECT_NAME": "STARLINK-35872", "OBJECT_ID": "2025-268Z", "EPOCH": "2025-12-05T22:00:03.000096", "MEAN_MOTION": 15.64958161, "ECCENTRICITY": 0.00015821, "INCLINATION": 42.9997, "RA_OF_ASC_NODE": 161.2011, "ARG_OF_PERICENTER": 279.798, "MEAN_ANOMALY": 164.9007, "EPHEMERIS_TYPE": 0, "CLASSIFICATION_TYPE": "U", "NORAD_CAT_ID": 66580, "ELEMENT_SET_NO": 999, "REV_AT_EPOCH": 357, "BSTAR": -0.021883478, "MEAN_MOTION_DOT": -0.01948325, "MEAN_MOTION_DDOT": 0}, "tle": {"line1": "1 66580U 25268Z   25339.91670139 -.01948325  00000+0 -21883-1 0  9992", "line2": "2 66580  42.9997 161.2011 0001582 279.7980 164.9007 15.64958161  3575"}}, "geometry": {"type": "Point", "coordinates": [163.50401363496016, 5.243090407396638]}}, {"type": "Feature", "properties": {"norad_id": 66581, "name": "STARLINK-35744", "group": "last-30-days", "lat": 6.542702960558895, "lon": 164.91656549242708, "alt_km": 379.04312453215425, "timestamp": "2025-12-06T11:28:09.787135+00:00", "meta": {"OBJECT_NAME": "STARLINK-35744", "OBJECT_ID": "2025-268AA", "EPOCH": "2025-12-05T22:00:03.000096", "MEAN_MOTION": 15.64959783, "ECCENTRICITY": 0.00016163, "INCLINATION": 42.9998, "RA_OF_ASC_NODE": 161.1953, "ARG_OF_PERICENTER": 280.7961, "MEAN_ANOMALY": 165.8183, "EPHEMERIS_TYPE": 0, "CLASSIFICATION_TYPE": "U", "NORAD_CAT_ID": 66581, "ELEMENT_SET_NO": 999, "REV_AT_EPOCH": 352, "BSTAR": -0.021899316, "MEAN_MOTION_DOT": -0.01949706, "MEAN_MOTION_DDOT": 0}, "tle": {"line1": "1 66581U 25268AA  25339.91670139 -.01949706  00000+0 -21899-1 0  9994", "line2": "2 66581  42.9998 161.1953 0001616 280.7961 165.8183 15.64959783  3521"}}, "geometry": {"type": "Point", "coordinates": [164.91656549242708, 6.542702960558895]}}, {"type": "Feature", "properties": {"norad_id": 66582, "name": "STARLINK-35746", "group": "last-30-days", "lat": 7.838121368518363, "lon": 166.33745316744464, "alt_km": 378.912991072747, "timestamp": "2025-12-06T11:28:09.787156+00:00", "meta": {"OBJECT_NAME": "STARLINK-35746", "OBJECT_ID": "2025-268AB", "EPOCH": "2025-12-05T22:00:03.000096", "MEAN_MOTION": 15.64957972, "ECCENTRICITY": 0.00016333, "INCLINATION": 42.9996, "RA_OF_ASC_NODE": 161.1906, "ARG_OF_PERICENTER": 280.342, "MEAN_ANOMALY": 168.19, "EPHEMERIS_TYPE": 0, "CLASSIFICATION_TYPE": "U", "NORAD_CAT_ID": 66582, "ELEMENT_SET_NO": 999, "REV_AT_EPOCH": 357, "BSTAR": -0.021872706, "MEAN_MOTION_DOT": -0.01947505, "MEAN_MOTION_DDOT": 0}, "tle": {"line1": "1 66582U 25268AB  25339.91670139 -.01947505  00000+0 -21873-1 0  9992", "line2": "2 66582  42.9996 161.1906 0001633 280.3420 168.1900 15.64957972  3579"}}, "geometry": {"type": "Point", "coordinates": [166.33745316744464, 7.838121368518363]}}, {"type": "Feature", "properties": {"norad_id": 66583, "name": "STARLINK-35941", "group": "last-30-days", "lat": 9.129013813235268, "lon": 167.76748201116314, "alt_km": 378.74947193345633, "timestamp": "2025-12-06T11:28:09.787175+00:00", "meta": {"OBJECT_NAME": "STARLINK-35941", "OBJECT_ID": "2025-268AC", "EPOCH": "2025-12-05T22:00:03.000096", "MEAN_MOTION": 15.64957861, "ECCENTRICITY": 0.00016138, "INCLINATION": 42.9997, "RA_OF_ASC_NODE": 161.1859, "ARG_OF_PERICENTER": 280.9311, "MEAN_ANOMALY": 169.5168, "EPHEMERIS_TYPE": 0, "CLASSIFICATION_TYPE": "U", "NORAD_CAT_ID": 66583, "ELEMENT_SET_NO": 999, "REV_AT_EPOCH": 357, "BSTAR": -0.021854488, "MEAN_MOTION_DOT": -0.01946052, "MEAN_MOTION_DDOT": 0}, "tle": {"line1": "1 66583U 25268AC  25339.91670139 -.01946052  00000+0 -21854-1 0  9998", "line2": "2 66583  42.9997 161.1859 0001613 280.9311 169.5168 15.64957861  3579"}}, "geometry": {"type": "Point", "coordinates": [167.76748201116314, 9.129013813235268]}}, {"type": "Feature", "properties": {"norad_id": 66584, "name": "STARLINK-35939", "group": "last-30-days", "lat": 10.412696459932228, "lon": 169.206373267243, "alt_km": 378.627964336948, "timestamp": "2025-12-06T11:28:09.787185+00:00", "meta": {"OBJECT_NAME": "STARLINK-35939", "OBJECT_ID": "2025-268AD", "EPOCH": "2025-12-05T22:00:03.000096", "MEAN_MOTION": 15.64961745, "ECCENTRICITY": 0.00015852, "INCLINATION": 42.9998, "RA_OF_ASC_NODE": 161.1814, "ARG_OF_PERICENTER": 280.8042, "MEAN_ANOMALY": 171.5615, "EPHEMERIS_TYPE": 0, "CLASSIFICATION_TYPE": "U", "NORAD_CAT_ID": 66584, "ELEMENT_SET_NO": 999, "REV_AT_EPOCH": 357, "BSTAR": -0.021945703, "MEAN_MOTION_DOT": -0.01953459, "MEAN_MOTION_DDOT": 0}, "tle": {"line1": "1 66584U 25268AD  25339.91670139 -.01953459  00000+0 -21946-1 0  9990", "line2": "2 66584  42.9998 161.1814 0001585 280.8042 171.5615 15.64961745  3576"}}, "geometry": {"type": "Point", "coordinates": [169.206373267243, 10.412696459932228]}}, {"type": "Feature", "properties": {"norad_id": 66585, "name": "STARLINK-35963", "group": "last-30-days", "lat": 11.689553435775268, "lon": 170.65683253535093, "alt_km": 378.64731430658867, "timestamp": "2025-12-06T11:28:09.787199+00:00", "meta": {"OBJECT_NAME": "STARLINK-35963", "OBJECT_ID": "2025-268AE", "EPOCH": "2025-12-05T22:00:03.000096", "MEAN_MOTION": 15.64952553, "ECCENTRICITY": 0.00015255, "INCLINATION": 42.9999, "RA_OF_ASC_NODE": 161.1769, "ARG_OF_PERICENTER": 275.4927, "MEAN_ANOMALY": 178.8033, "EPHEMERIS_TYPE": 0, "CLASSIFICATION_TYPE": "U", "NORAD_CAT_ID": 66585, "ELEMENT_SET_NO": 999, "REV_AT_EPOCH": 357, "BSTAR": -0.021918417, "MEAN_MOTION_DOT": -0.01950636, "MEAN_MOTION_DDOT": 0}, "tle": {"line1": "1 66585U 25268AE  25339.91670139 -.01950636  00000+0 -21918-1 0  9994", "line2": "2 66585  42.9999 161.1769 0001525 275.4927 178.8033 15.64952553  3574"}}, "geometry": {"type": "Point", "coordinates": [170.65683253535093, 11.689553435775268]}}]}